CCSDS_OMM_VERS = 2.0
CREATION_DATE  = 
ORIGINATOR     = 

OBJECT_NAME    = STARLINK-35640
OBJECT_ID      = 2025-265W
CENTER_NAME    = EARTH
REF_FRAME      = TEME
TIME_SYSTEM    = UTC
MEAN_ELEMENT_THEORY = SGP/SGP4

EPOCH          = 2025-12-04T04:00:03.000096
MEAN_MOTION    = 15.75141499
ECCENTRICITY   = .0000995
INCLINATION    = 43.0002
RA_OF_ASC_NODE = 104.6946
ARG_OF_PERICENTER = 256.2928
MEAN_ANOMALY   = 347.3342

EPHEMERIS_TYPE = 0
CLASSIFICATION_TYPE = U
NORAD_CAT_ID   = 66536
ELEMENT_SET_NO = 999
REV_AT_EPOCH   = 359
BSTAR          = -.13911E-1
MEAN_MOTION_DOT = -.1870806E-1
MEAN_MOTION_DDOT = 0

CCSDS_OMM_VERS = 2.0
CREATION_DATE  = 
ORIGINATOR     = 

OBJECT_NAME    = STARLINK-35582
OBJECT_ID      = 2025-265X
CENTER_NAME    = EARTH
REF_FRAME      = TEME
TIME_SYSTEM    = UTC
MEAN_ELEMENT_THEORY = SGP/SGP4

EPOCH          = 2025-12-03T22:00:03.000096
MEAN_MOTION    = 15.75314122
ECCENTRICITY   = .00016801
INCLINATION    = 43.0001
RA_OF_ASC_NODE = 106.2080
ARG_OF_PERICENTER = 283.9953
MEAN_ANOMALY   = 342.1692

EPHEMERIS_TYPE = 0
CLASSIFICATION_TYPE = U
NORAD_CAT_ID   = 66537
ELEMENT_SET_NO = 999
REV_AT_EPOCH   = 357
BSTAR          = -.52968896E-2
MEAN_MOTION_DOT = -.754251E-2
MEAN_MOTION_DDOT = 0

CCSDS_OMM_VERS = 2.0
CREATION_DATE  = 
ORIGINATOR     = 

OBJECT_NAME    = STARLINK-35577
OBJECT_ID      = 2025-265Y
CENTER_NAME    = EARTH
REF_FRAME      = TEME
TIME_SYSTEM    = UTC
MEAN_ELEMENT_THEORY = SGP/SGP4

EPOCH          = 2025-12-04T04:00:03.000096
MEAN_MOTION    = 15.75092489
ECCENTRICITY   = .0001367
INCLINATION    = 43.0003
RA_OF_ASC_NODE = 104.6844
ARG_OF_PERICENTER = 265.9070
MEAN_ANOMALY   = 341.5933

EPHEMERIS_TYPE = 0
CLASSIFICATION_TYPE = U
NORAD_CAT_ID   = 66538
ELEMENT_SET_NO = 999
REV_AT_EPOCH   = 361
BSTAR          = -.13518E-1
MEAN_MOTION_DOT = -.1821629E-1
MEAN_MOTION_DDOT = 0

CCSDS_OMM_VERS = 2.0
CREATION_DATE  = 
ORIGINATOR     = 

OBJECT_NAME    = STARLINK-35697
OBJECT_ID      = 2025-265Z
CENTER_NAME    = EARTH
REF_FRAME      = TEME
TIME_SYSTEM    = UTC
MEAN_ELEMENT_THEORY = SGP/SGP4

EPOCH          = 2025-12-04T04:00:03.000096
MEAN_MOTION    = 15.75131192
ECCENTRICITY   = .0001262
INCLINATION    = 43.0003
RA_OF_ASC_NODE = 104.6793
ARG_OF_PERICENTER = 249.8858
MEAN_ANOMALY   = 359.4960

EPHEMERIS_TYPE = 0
CLASSIFICATION_TYPE = U
NORAD_CAT_ID   = 66539
ELEMENT_SET_NO = 999
REV_AT_EPOCH   = 361
BSTAR          = -.13782E-1
MEAN_MOTION_DOT = -.1855318E-1
MEAN_MOTION_DDOT = 0

CCSDS_OMM_VERS = 2.0
CREATION_DATE  = 
ORIGINATOR     = 

OBJECT_NAME    = STARLINK-35818
OBJECT_ID      = 2025-265AA
CENTER_NAME    = EARTH
REF_FRAME      = TEME
TIME_SYSTEM    = UTC
MEAN_ELEMENT_THEORY = SGP/SGP4

EPOCH          = 2025-12-04T04:00:03.000096
MEAN_MOTION    = 15.75118025
ECCENTRICITY   = .0001635
INCLINATION    = 43.0000
RA_OF_ASC_NODE = 104.6750
ARG_OF_PERICENTER = 276.6271
MEAN_ANOMALY   = 334.6884

EPHEMERIS_TYPE = 0
CLASSIFICATION_TYPE = U
NORAD_CAT_ID   = 66540
ELEMENT_SET_NO = 999
REV_AT_EPOCH   = 361
BSTAR          = -.13748E-1
MEAN_MOTION_DOT = -.1850706E-1
MEAN_MOTION_DDOT = 0

CCSDS_OMM_VERS = 2.0
CREATION_DATE  = 
ORIGINATOR     = 

OBJECT_NAME    = STARLINK-35796
OBJECT_ID      = 2025-265AB
CENTER_NAME    = EARTH
REF_FRAME      = TEME
TIME_SYSTEM    = UTC
MEAN_ELEMENT_THEORY = SGP/SGP4

EPOCH          = 2025-12-04T04:00:03.000096
MEAN_MOTION    = 15.75120889
ECCENTRICITY   = .0001629
INCLINATION    = 43.0001
RA_OF_ASC_NODE = 104.6701
ARG_OF_PERICENTER = 272.3102
MEAN_ANOMALY   = 340.9186

EPHEMERIS_TYPE = 0
CLASSIFICATION_TYPE = U
NORAD_CAT_ID   = 66541
ELEMENT_SET_NO = 999
REV_AT_EPOCH   = 361
BSTAR          = -.13751E-1
MEAN_MOTION_DOT = -.1851274E-1
MEAN_MOTION_DDOT = 0

CCSDS_OMM_VERS = 2.0
CREATION_DATE  = 
ORIGINATOR     = 

OBJECT_NAME    = STARLINK-35833
OBJECT_ID      = 2025-265AC
CENTER_NAME    = EARTH
REF_FRAME      = TEME
TIME_SYSTEM    = UTC
MEAN_ELEMENT_THEORY = SGP/SGP4

EPOCH          = 2025-12-04T04:00:03.000096
MEAN_MOTION    = 15.75133775
ECCENTRICITY   = .0000999
INCLINATION    = 43.0002
RA_OF_ASC_NODE = 104.6656
ARG_OF_PERICENTER = 250.1309
MEAN_ANOMALY   = 5.0017

EPHEMERIS_TYPE = 0
CLASSIFICATION_TYPE = U
NORAD_CAT_ID   = 66542
ELEMENT_SET_NO = 999
REV_AT_EPOCH   = 361
BSTAR          = -.13827E-1
MEAN_MOTION_DOT = -.1860513E-1
MEAN_MOTION_DDOT = 0

CCSDS_OMM_VERS = 2.0
CREATION_DATE  = 
ORIGINATOR     = 

OBJECT_NAME    = STARLINK-35315
OBJECT_ID      = 2025-265AD
CENTER_NAME    = EARTH
REF_FRAME      = TEME
TIME_SYSTEM    = UTC
MEAN_ELEMENT_THEORY = SGP/SGP4

EPOCH          = 2025-12-04T04:00:03.000096
MEAN_MOTION    = 15.75146845
ECCENTRICITY   = .0001432
INCLINATION    = 43.0003
RA_OF_ASC_NODE = 104.6602
ARG_OF_PERICENTER = 271.6681
MEAN_ANOMALY   = 345.3685

EPHEMERIS_TYPE = 0
CLASSIFICATION_TYPE = U
NORAD_CAT_ID   = 66543
ELEMENT_SET_NO = 999
REV_AT_EPOCH   = 350
BSTAR          = -.13897E-1
MEAN_MOTION_DOT = -.1869997E-1
MEAN_MOTION_DDOT = 0

CCSDS_OMM_VERS = 2.0
CREATION_DATE  = 
ORIGINATOR     = 

OBJECT_NAME    = STARLINK-35728
OBJECT_ID      = 2025-265AE
CENTER_NAME    = EARTH
REF_FRAME      = TEME
TIME_SYSTEM    = UTC
MEAN_ELEMENT_THEORY = SGP/SGP4

EPOCH          = 2025-12-04T04:00:03.000096
MEAN_MOTION    = 15.75137617
ECCENTRICITY   = .0001268
INCLINATION    = 43.0001
RA_OF_ASC_NODE = 104.6555
ARG_OF_PERICENTER = 247.0546
MEAN_ANOMALY   = 11.9111

EPHEMERIS_TYPE = 0
CLASSIFICATION_TYPE = U
NORAD_CAT_ID   = 66544
ELEMENT_SET_NO = 999
REV_AT_EPOCH   = 361
BSTAR          = -.13863E-1
MEAN_MOTION_DOT = -.1865226E-1
MEAN_MOTION_DDOT = 0

CCSDS_OMM_VERS = 2.0
CREATION_DATE  = 
ORIGINATOR     = 

OBJECT_NAME    = SHIJIAN-30A
OBJECT_ID      = 2025-266A
CENTER_NAME    = EARTH
REF_FRAME      = TEME
TIME_SYSTEM    = UTC
MEAN_ELEMENT_THEORY = SGP/SGP4

EPOCH          = 2025-12-04T02:50:30.657696
MEAN_MOTION    = 15.15368313
ECCENTRICITY   = .0012789
INCLINATION    = 51.7997
RA_OF_ASC_NODE = 13.2476
ARG_OF_PERICENTER = 325.8812
MEAN_ANOMALY   = 34.1341

EPHEMERIS_TYPE = 0
CLASSIFICATION_TYPE = U
NORAD_CAT_ID   = 66545
ELEMENT_SET_NO = 999
REV_AT_EPOCH   = 227
BSTAR          = .11708E-2
MEAN_MOTION_DOT = .22169E-3
MEAN_MOTION_DDOT = 0

CCSDS_OMM_VERS = 2.0
CREATION_DATE  = 
ORIGINATOR     = 

OBJECT_NAME    = SHIJIAN-30B
OBJECT_ID      = 2025-266B
CENTER_NAME    = EARTH
REF_FRAME      = TEME
TIME_SYSTEM    = UTC
MEAN_ELEMENT_THEORY = SGP/SGP4

EPOCH          = 2025-12-04T02:51:53.600832
MEAN_MOTION    = 15.15435485
ECCENTRICITY   = .0010465
INCLINATION    = 51.7980
RA_OF_ASC_NODE = 13.2519
ARG_OF_PERICENTER = 328.8892
MEAN_ANOMALY   = 31.1463

EPHEMERIS_TYPE = 0
CLASSIFICATION_TYPE = U
NORAD_CAT_ID   = 66546
ELEMENT_SET_NO = 999
REV_AT_EPOCH   = 227
BSTAR          = .13606E-2
MEAN_MOTION_DOT = .25861E-3
MEAN_MOTION_DDOT = 0

CCSDS_OMM_VERS = 2.0
CREATION_DATE  = 
ORIGINATOR     = 

OBJECT_NAME    = SHIJIAN-30C
OBJECT_ID      = 2025-266C
CENTER_NAME    = EARTH
REF_FRAME      = TEME
TIME_SYSTEM    = UTC
MEAN_ELEMENT_THEORY = SGP/SGP4

EPOCH          = 2025-12-04T02:52:57.305280
MEAN_MOTION    = 15.15467144
ECCENTRICITY   = .0011353
INCLINATION    = 51.7992
RA_OF_ASC_NODE = 13.2574
ARG_OF_PERICENTER = 321.0796
MEAN_ANOMALY   = 38.9362

EPHEMERIS_TYPE = 0
CLASSIFICATION_TYPE = U
NORAD_CAT_ID   = 66547
ELEMENT_SET_NO = 999
REV_AT_EPOCH   = 227
BSTAR          = .11631E-2
MEAN_MOTION_DOT = .22076E-3
MEAN_MOTION_DDOT = 0

