STARLINK-35640          
1 66536U 25265W   25338.16670139 -.01870806  00000+0 -13911-1 0  9997
2 66536  43.0002 104.6946 0000995 256.2928 347.3342 15.75141499  3593
STARLINK-35582          
1 66537U 25265X   25337.91670139 -.00754251  00000+0 -52969-2 0  9991
2 66537  43.0001 106.2080 0001680 283.9953 342.1692 15.75314122  3571
STARLINK-35577          
1 66538U 25265Y   25338.16670139 -.01821629  00000+0 -13518-1 0  9991
2 66538  43.0003 104.6844 0001367 265.9070 341.5933 15.75092489  3611
STARLINK-35697          
1 66539U 25265Z   25338.16670139 -.01855318  00000+0 -13782-1 0  9997
2 66539  43.0003 104.6793 0001262 249.8858 359.4960 15.75131192  3617
STARLINK-35818          
1 66540U 25265AA  25338.16670139 -.01850706  00000+0 -13748-1 0  9997
2 66540  43.0000 104.6750 0001635 276.6271 334.6884 15.75118025  3610
STARLINK-35796          
1 66541U 25265AB  25338.16670139 -.01851274  00000+0 -13751-1 0  9993
2 66541  43.0001 104.6701 0001629 272.3102 340.9186 15.75120889  3613
STARLINK-35833          
1 66542U 25265AC  25338.16670139 -.01860513  00000+0 -13827-1 0  9994
2 66542  43.0002 104.6656 0000999 250.1309   5.0017 15.75133775  3616
STARLINK-35315          
1 66543U 25265AD  25338.16670139 -.01869997  00000+0 -13897-1 0  9997
2 66543  43.0003 104.6602 0001432 271.6681 345.3685 15.75146845  3504
STARLINK-35728          
1 66544U 25265AE  25338.16670139 -.01865226  00000+0 -13863-1 0  9992
2 66544  43.0001 104.6555 0001268 247.0546  11.9111 15.75137617  3613
SHIJIAN-30A             
1 66545U 25266A   25338.11841039  .00022169  00000+0  11708-2 0  9993
2 66545  51.7997  13.2476 0012789 325.8812  34.1341 15.15368313  2278
SHIJIAN-30B             
1 66546U 25266B   25338.11937038  .00025861  00000+0  13606-2 0  9990
2 66546  51.7980  13.2519 0010465 328.8892  31.1463 15.15435485  2276
SHIJIAN-30C             
1 66547U 25266C   25338.12010770  .00022076  00000+0  11631-2 0  9998
2 66547  51.7992  13.2574 0011353 321.0796  38.9362 15.15467144  2276
